*******************************************************************************
Ephemeris / WWW_USER Fri Apr  6 10:37:49 2018 Pasadena, USA      / Horizons    
*******************************************************************************
Target body name: 67P/Churyumov-Gerasimenko       {source: JPL#K154/2}
Center body name: Solar System Barycenter (0)     {source: DE431}
Center-site name: BODY CENTER
*******************************************************************************
Start time      : A.D. 2000-Jan-01 00:00:00.0000 TDB
Stop  time      : A.D. 2010-Jan-01 00:00:00.0000 TDB
Step-size       : 7200 minutes
*******************************************************************************
Center geodetic : 0.00000000,0.00000000,0.0000000 {E-lon(deg),Lat(deg),Alt(km)}
Center cylindric: 0.00000000,0.00000000,0.0000000 {E-lon(deg),Dxy(km),Dz(km)}
Center radii    : (undefined)                                                  
Small perturbers: Yes                             {source: SB431-N16}
Output units    : AU-D                                                         
Output type     : GEOMETRIC cartesian states
Output format   : 2 (position and velocity)
Reference frame : ICRF/J2000.0                                                 
Coordinate systm: Ecliptic and Mean Equinox of Reference Epoch                 
*******************************************************************************
Initial IAU76/J2000 heliocentric ecliptic osculating elements (au, days, deg.):
  EPOCH=  2455493.5 ! 2010-Oct-24.0000000 (TDB)    RMSW= n.a.                  
   EC= .6405847372930017   QR= 1.245279365549379   TP= 2454891.0294609596      
   OM= 50.18000114437616   W= 12.69446404906225    IN= 7.043698689343029       
  Equivalent ICRF heliocentric equatorial cartesian coordinates (au, au/d):
   X=-3.850723270245635E+00  Y=-2.482255344896192E+00  Z=-9.053508137316502E-01
  VX=-1.037575590605638E-04 VY=-5.681493291279342E-03 VZ=-3.005130669616299E-03
Comet physical (GM= km^3/s^2; RAD= km):                                        
   GM= n.a.                RAD= 2.                                             
   M1=  11.3     M2=  13.9     k1=  11.    k2=  5.      PHCOF=  .030           
Comet non-gravitational force model (AMRAT=m^2/kg;A1-A3=au/d^2;DT=days;R0=au): 
   AMRAT=  0.                                      DT=  35.07142               
   A1= 1.066669896245E-9   A2= -3.689152188599E-11 A3= 2.483436092734E-10      
 Standard model:                                                               
   ALN=  .1112620426   NK=  4.6142   NM=  2.15     NN=  5.093    R0=  2.808    
*******************************************************************************
JDTDB
   X     Y     Z
   VX    VY    VZ
*******************************************************************************
$$SOE
2453469.500000000 = A.D. 2005-Apr-09 00:00:00.0000 TDB 
  -3.425374607971657E+00 -4.376305437680712E+00 -1.221795911001963E-02
   2.673868366110201E-03 -3.795211625770311E-03 -5.596056093470264E-04
2453474.500000000 = A.D. 2005-Apr-14 00:00:00.0000 TDB 
  -3.411931806148736E+00 -4.395187061536812E+00 -1.501569612548414E-02
   2.703215427782636E-03 -3.757433280000719E-03 -5.594852394722545E-04
2453479.500000000 = A.D. 2005-Apr-19 00:00:00.0000 TDB 
  -3.398342821041685E+00 -4.413879723366890E+00 -1.781277206607526E-02
   2.732342079032434E-03 -3.719626665551072E-03 -5.593412061998240E-04
2453484.500000000 = A.D. 2005-Apr-24 00:00:00.0000 TDB 
  -3.384608748756071E+00 -4.432383279570838E+00 -2.060906901192940E-02
   2.761250690010086E-03 -3.681790877830657E-03 -5.591736674015578E-04
2453489.500000000 = A.D. 2005-Apr-29 00:00:00.0000 TDB 
  -3.370730673672904E+00 -4.450697581997057E+00 -2.340446981795775E-02
   2.789943580550670E-03 -3.643925000848025E-03 -5.589827751331882E-04
2453494.500000000 = A.D. 2005-May-04 00:00:00.0000 TDB 
  -3.356709668697804E+00 -4.468822477885662E+00 -2.619885808502190E-02
   2.818423021133215E-03 -3.606028107295993E-03 -5.587686757345069E-04
2453499.500000000 = A.D. 2005-May-09 00:00:00.0000 TDB 
  -3.342546795505436E+00 -4.486757809812108E+00 -2.899211813159332E-02
   2.846691233813222E-03 -3.568099258626590E-03 -5.585315099258169E-04
2453504.500000000 = A.D. 2005-May-14 00:00:00.0000 TDB 
  -3.328243104779360E+00 -4.504503415631145E+00 -3.178413496588724E-02
   2.874750393125352E-03 -3.530137505117542E-03 -5.582714129001616E-04
2453509.500000000 = A.D. 2005-May-19 00:00:00.0000 TDB 
  -3.313799636447436E+00 -4.522059128421100E+00 -3.457479425845403E-02
   2.902602626959071E-03 -3.492141885929963E-03 -5.579885144115646E-04
2453514.500000000 = A.D. 2005-May-24 00:00:00.0000 TDB 
  -3.299217419912915E+00 -4.539424776428416E+00 -3.736398231519021E-02
   2.930250017406180E-03 -3.454111429158213E-03 -5.576829388592648E-04
2453519.500000000 = A.D. 2005-May-29 00:00:00.0000 TDB 
  -3.284497474281374E+00 -4.556600183012432E+00 -4.015158605076999E-02
   2.957694601580079E-03 -3.416045151870405E-03 -5.573548053677272E-04
2453524.500000000 = A.D. 2005-Jun-03 00:00:00.0000 TDB 
  -3.269640808583607E+00 -4.573585166590315E+00 -4.293749296246285E-02
   2.984938372410968E-03 -3.377942060133424E-03 -5.570042278625096E-04
2453529.500000000 = A.D. 2005-Jun-08 00:00:00.0000 TDB 
  -3.254648421994592E+00 -4.590379540582084E+00 -4.572159110431892E-02
   3.011983279424873E-03 -3.339801149020383E-03 -5.566313151426752E-04
2453534.500000000 = A.D. 2005-Jun-13 00:00:00.0000 TDB 
  -3.239521304048561E+00 -4.606983113355618E+00 -4.850376906171495E-02
   3.038831229521482E-03 -3.301621402601062E-03 -5.562361709514819E-04
2453539.500000000 = A.D. 2005-Jun-18 00:00:00.0000 TDB 
  -3.224260434850235E+00 -4.623395688171686E+00 -5.128391592625240E-02
   3.065484087731470E-03 -3.263401793969398E-03 -5.558188940476289E-04
2453544.500000000 = A.D. 2005-Jun-23 00:00:00.0000 TDB 
  -3.208866785282360E+00 -4.639617063129153E+00 -5.406192127100728E-02
   3.091943677923733E-03 -3.225141285277749E-03 -5.553795782721015E-04
2453549.500000000 = A.D. 2005-Jun-28 00:00:00.0000 TDB 
  -3.193341317209862E+00 -4.655647031110397E+00 -5.683767512609927E-02
   3.118211783468356E-03 -3.186838827784628E-03 -5.549183126119557E-04
2453554.500000000 = A.D. 2005-Jul-03 00:00:00.0000 TDB 
  -3.177684983680741E+00 -4.671485379726911E+00 -5.961106795457014E-02
   3.144290147865577E-03 -3.148493361877723E-03 -5.544351812592615E-04
2453559.500000000 = A.D. 2005-Jul-08 00:00:00.0000 TDB 
  -3.161898729123911E+00 -4.687131891264962E+00 -6.238199062855301E-02
   3.170180475350217E-03 -3.110103817081062E-03 -5.539302636669685E-04
2453564.500000000 = A.D. 2005-Jul-13 00:00:00.0000 TDB 
  -3.145983489544054E+00 -4.702586342631268E+00 -6.515033440570900E-02
   3.195884431475592E-03 -3.071669112047759E-03 -5.534036346022836E-04
2453569.500000000 = A.D. 2005-Jul-18 00:00:00.0000 TDB 
  -3.129940192713610E+00 -4.717848505298595E+00 -6.791599090593051E-02
   3.221403643676189E-03 -3.033188154542749E-03 -5.528553641978909E-04
2453574.500000000 = A.D. 2005-Jul-23 00:00:00.0000 TDB 
  -3.113769758362016E+00 -4.732918145251269E+00 -7.067885208828587E-02
   3.246739701807784E-03 -2.994659841416171E-03 -5.522855180009075E-04
2453579.500000000 = A.D. 2005-Jul-28 00:00:00.0000 TDB 
  -3.097473098362292E+00 -4.747795022930498E+00 -7.343881022821475E-02
   3.271894158664570E-03 -2.956083058567920E-03 -5.516941570195642E-04
2453584.500000000 = A.D. 2005-Aug-02 00:00:00.0000 TDB 
  -3.081051116915115E+00 -4.762478893179525E+00 -7.619575789494336E-02
   3.296868530470914E-03 -2.917456680899226E-03 -5.510813377667967E-04
2453589.500000000 = A.D. 2005-Aug-07 00:00:00.0000 TDB 
  -3.064504710730473E+00 -4.776969505188467E+00 -7.894958792910689E-02
   3.321664297354842E-03 -2.878779572247069E-03 -5.504471123008134E-04
2453594.500000000 = A.D. 2005-Aug-12 00:00:00.0000 TDB 
  -3.047834769207010E+00 -4.791266602438804E+00 -8.170019342057398E-02
   3.346282903799012E-03 -2.840050585305240E-03 -5.497915282626164E-04
2453599.500000000 = A.D. 2005-Aug-17 00:00:00.0000 TDB 
  -3.031042174609147E+00 -4.805369922647410E+00 -8.444746768644885E-02
   3.370725759084411E-03 -2.801268561519083E-03 -5.491146289094899E-04
2453604.500000000 = A.D. 2005-Aug-22 00:00:00.0000 TDB 
  -3.014127802242009E+00 -4.819279197710032E+00 -8.719130424922567E-02
   3.394994237718474E-03 -2.762432330972142E-03 -5.484164531460137E-04
2453609.500000000 = A.D. 2005-Aug-27 00:00:00.0000 TDB 
  -2.997092520624237E+00 -4.832994153644159E+00 -8.993159681509622E-02
   3.419089679856441E-03 -2.723540712253643E-03 -5.476970355515218E-04
2453614.500000000 = A.D. 2005-Sep-01 00:00:00.0000 TDB 
  -2.979937191658709E+00 -4.846514510531184E+00 -9.266823925239084E-02
   3.443013391718531E-03 -2.684592512310621E-03 -5.469564064048821E-04
2453619.500000000 = A.D. 2005-Sep-06 00:00:00.0000 TDB 
  -2.962662670801163E+00 -4.859839982457797E+00 -9.540112557013096E-02
   3.466766646011703E-03 -2.645586526283914E-03 -5.461945917076654E-04
2453624.500000000 = A.D. 2005-Sep-11 00:00:00.0000 TDB 
  -2.945269807226694E+00 -4.872970277456535E+00 -9.813014989669833E-02
   3.490350682355970E-03 -2.606521537355387E-03 -5.454116132081009E-04
2453629.500000000 = A.D. 2005-Sep-16 00:00:00.0000 TDB 
  -2.927759443994146E+00 -4.885905097445679E+00 -1.008552064586395E-01
   3.513766707697233E-03 -2.567396316618189E-03 -5.446074884251799E-04
2453634.500000000 = A.D. 2005-Sep-21 00:00:00.0000 TDB 
  -2.910132418208563E+00 -4.898644138168578E+00 -1.035761895595656E-01
   3.537015896667781E-03 -2.528209622989610E-03 -5.437822306713576E-04
2453639.500000000 = A.D. 2005-Sep-26 00:00:00.0000 TDB 
  -2.892389561181913E+00 -4.911187089132510E+00 -1.062929935591743E-01
   3.560099391915854E-03 -2.488960203109348E-03 -5.429358490714456E-04
